CCSDS_OMM_VERS = 2.0
CREATION_DATE  = 
ORIGINATOR     = 

OBJECT_NAME    = ARIANE 5 R/B
OBJECT_ID      = 2004-049H
CENTER_NAME    = EARTH
REF_FRAME      = TEME
TIME_SYSTEM    = UTC
MEAN_ELEMENT_THEORY = SGP/SGP4

EPOCH          = 2025-11-18T09:28:59.167200
MEAN_MOTION    = 14.84939446
ECCENTRICITY   = .008452
INCLINATION    = 98.2516
RA_OF_ASC_NODE = 121.8065
ARG_OF_PERICENTER = 352.6399
MEAN_ANOMALY   = 7.3567

EPHEMERIS_TYPE = 0
CLASSIFICATION_TYPE = U
NORAD_CAT_ID   = 28499
ELEMENT_SET_NO = 999
REV_AT_EPOCH   = 12927
BSTAR          = .14172E-3
MEAN_MOTION_DOT = .1221E-4
MEAN_MOTION_DDOT = 0

CCSDS_OMM_VERS = 2.0
CREATION_DATE  = 
ORIGINATOR     = 

OBJECT_NAME    = CZ-2D R/B
OBJECT_ID      = 2005-024B
CENTER_NAME    = EARTH
REF_FRAME      = TEME
TIME_SYSTEM    = UTC
MEAN_ELEMENT_THEORY = SGP/SGP4

EPOCH          = 2025-11-18T11:37:51.646656
MEAN_MOTION    = 15.51627763
ECCENTRICITY   = .0008138
INCLINATION    = 97.3650
RA_OF_ASC_NODE = 329.3250
ARG_OF_PERICENTER = 75.0587
MEAN_ANOMALY   = 285.1566

EPHEMERIS_TYPE = 0
CLASSIFICATION_TYPE = U
NORAD_CAT_ID   = 28738
ELEMENT_SET_NO = 999
REV_AT_EPOCH   = 12249
BSTAR          = .52271E-3
MEAN_MOTION_DOT = .3105E-3
MEAN_MOTION_DDOT = 0

CCSDS_OMM_VERS = 2.0
CREATION_DATE  = 
ORIGINATOR     = 

OBJECT_NAME    = ALOS (DAICHI)
OBJECT_ID      = 2006-002A
CENTER_NAME    = EARTH
REF_FRAME      = TEME
TIME_SYSTEM    = UTC
MEAN_ELEMENT_THEORY = SGP/SGP4

EPOCH          = 2025-11-18T09:15:26.201088
MEAN_MOTION    = 14.69379914
ECCENTRICITY   = .0000834
INCLINATION    = 98.1050
RA_OF_ASC_NODE = 274.0517
ARG_OF_PERICENTER = 59.1645
MEAN_ANOMALY   = 300.9643

EPHEMERIS_TYPE = 0
CLASSIFICATION_TYPE = U
NORAD_CAT_ID   = 28931
ELEMENT_SET_NO = 999
REV_AT_EPOCH   = 5713
BSTAR          = .40552E-3
MEAN_MOTION_DOT = .2349E-4
MEAN_MOTION_DDOT = 0

CCSDS_OMM_VERS = 2.0
CREATION_DATE  = 
ORIGINATOR     = 

OBJECT_NAME    = H-2A R/B
OBJECT_ID      = 2006-002B
CENTER_NAME    = EARTH
REF_FRAME      = TEME
TIME_SYSTEM    = UTC
MEAN_ELEMENT_THEORY = SGP/SGP4

EPOCH          = 2025-11-18T08:02:09.566880
MEAN_MOTION    = 15.13906039
ECCENTRICITY   = .0054451
INCLINATION    = 98.2300
RA_OF_ASC_NODE = 95.1060
ARG_OF_PERICENTER = 259.7633
MEAN_ANOMALY   = 99.7454

EPHEMERIS_TYPE = 0
CLASSIFICATION_TYPE = U
NORAD_CAT_ID   = 28932
ELEMENT_SET_NO = 999
REV_AT_EPOCH   = 7757
BSTAR          = .67209E-3
MEAN_MOTION_DOT = .12556E-3
MEAN_MOTION_DDOT = 0

CCSDS_OMM_VERS = 2.0
CREATION_DATE  = 
ORIGINATOR     = 

OBJECT_NAME    = RESURS-DK 1
OBJECT_ID      = 2006-021A
CENTER_NAME    = EARTH
REF_FRAME      = TEME
TIME_SYSTEM    = UTC
MEAN_ELEMENT_THEORY = SGP/SGP4

EPOCH          = 2025-11-17T22:57:17.557344
MEAN_MOTION    = 15.11963057
ECCENTRICITY   = .0007139
INCLINATION    = 69.9312
RA_OF_ASC_NODE = 165.8761
ARG_OF_PERICENTER = 280.3633
MEAN_ANOMALY   = 79.6728

EPHEMERIS_TYPE = 0
CLASSIFICATION_TYPE = U
NORAD_CAT_ID   = 29228
ELEMENT_SET_NO = 999
REV_AT_EPOCH   = 7063
BSTAR          = .18124E-3
MEAN_MOTION_DOT = .3011E-4
MEAN_MOTION_DDOT = 0

CCSDS_OMM_VERS = 2.0
CREATION_DATE  = 
ORIGINATOR     = 

OBJECT_NAME    = CZ-4B R/B
OBJECT_ID      = 2006-046C
CENTER_NAME    = EARTH
REF_FRAME      = TEME
TIME_SYSTEM    = UTC
MEAN_ELEMENT_THEORY = SGP/SGP4

EPOCH          = 2025-11-18T01:52:36.163776
MEAN_MOTION    = 15.15530735
ECCENTRICITY   = .0032824
INCLINATION    = 97.5773
RA_OF_ASC_NODE = 2.2849
ARG_OF_PERICENTER = 295.2608
MEAN_ANOMALY   = 64.5224

EPHEMERIS_TYPE = 0
CLASSIFICATION_TYPE = U
NORAD_CAT_ID   = 29507
ELEMENT_SET_NO = 999
REV_AT_EPOCH   = 4313
BSTAR          = .32168E-3
MEAN_MOTION_DOT = .611E-4
MEAN_MOTION_DDOT = 0

CCSDS_OMM_VERS = 2.0
CREATION_DATE  = 
ORIGINATOR     = 

OBJECT_NAME    = CZ-2C R/B
OBJECT_ID      = 2007-010B
CENTER_NAME    = EARTH
REF_FRAME      = TEME
TIME_SYSTEM    = UTC
MEAN_ELEMENT_THEORY = SGP/SGP4

EPOCH          = 2025-11-18T08:12:29.124864
MEAN_MOTION    = 14.20195385
ECCENTRICITY   = .0057931
INCLINATION    = 98.3967
RA_OF_ASC_NODE = 76.2221
ARG_OF_PERICENTER = 257.6925
MEAN_ANOMALY   = 101.7763

EPHEMERIS_TYPE = 0
CLASSIFICATION_TYPE = U
NORAD_CAT_ID   = 31114
ELEMENT_SET_NO = 999
REV_AT_EPOCH   = 96391
BSTAR          = .12124E-3
MEAN_MOTION_DOT = .222E-5
MEAN_MOTION_DDOT = 0

CCSDS_OMM_VERS = 2.0
CREATION_DATE  = 
ORIGINATOR     = 

OBJECT_NAME    = COSMO-SKYMED 1
OBJECT_ID      = 2007-023A
CENTER_NAME    = EARTH
REF_FRAME      = TEME
TIME_SYSTEM    = UTC
MEAN_ELEMENT_THEORY = SGP/SGP4

EPOCH          = 2025-11-18T12:03:36.376704
MEAN_MOTION    = 14.95516909
ECCENTRICITY   = .0001082
INCLINATION    = 97.8841
RA_OF_ASC_NODE = 147.7468
ARG_OF_PERICENTER = 79.9808
MEAN_ANOMALY   = 280.1535

EPHEMERIS_TYPE = 0
CLASSIFICATION_TYPE = U
NORAD_CAT_ID   = 31598
ELEMENT_SET_NO = 999
REV_AT_EPOCH   = 99827
BSTAR          = .4253E-3
MEAN_MOTION_DOT = .4654E-4
MEAN_MOTION_DDOT = 0

CCSDS_OMM_VERS = 2.0
CREATION_DATE  = 
ORIGINATOR     = 

OBJECT_NAME    = COSMOS 2428
OBJECT_ID      = 2007-029A
CENTER_NAME    = EARTH
REF_FRAME      = TEME
TIME_SYSTEM    = UTC
MEAN_ELEMENT_THEORY = SGP/SGP4

EPOCH          = 2025-11-18T10:54:42.981696
MEAN_MOTION    = 14.12887982
ECCENTRICITY   = .0002397
INCLINATION    = 70.9369
RA_OF_ASC_NODE = 76.8646
ARG_OF_PERICENTER = 65.2517
MEAN_ANOMALY   = 294.8854

EPHEMERIS_TYPE = 0
CLASSIFICATION_TYPE = U
NORAD_CAT_ID   = 31792
ELEMENT_SET_NO = 999
REV_AT_EPOCH   = 94838
BSTAR          = -.65657E-4
MEAN_MOTION_DOT = -.17E-5
MEAN_MOTION_DDOT = 0

CCSDS_OMM_VERS = 2.0
CREATION_DATE  = 
ORIGINATOR     = 

OBJECT_NAME    = SL-16 R/B
OBJECT_ID      = 2007-029B
CENTER_NAME    = EARTH
REF_FRAME      = TEME
TIME_SYSTEM    = UTC
MEAN_ELEMENT_THEORY = SGP/SGP4

EPOCH          = 2025-11-18T11:55:48.156960
MEAN_MOTION    = 14.14814215
ECCENTRICITY   = .0002201
INCLINATION    = 70.9777
RA_OF_ASC_NODE = 46.1156
ARG_OF_PERICENTER = 262.3169
MEAN_ANOMALY   = 184.0848

EPHEMERIS_TYPE = 0
CLASSIFICATION_TYPE = U
NORAD_CAT_ID   = 31793
ELEMENT_SET_NO = 999
REV_AT_EPOCH   = 94964
BSTAR          = .17715E-3
MEAN_MOTION_DOT = .294E-5
MEAN_MOTION_DDOT = 0

CCSDS_OMM_VERS = 2.0
CREATION_DATE  = 
ORIGINATOR     = 

OBJECT_NAME    = KORONAS-FOTON
OBJECT_ID      = 2009-003A
CENTER_NAME    = EARTH
REF_FRAME      = TEME
TIME_SYSTEM    = UTC
MEAN_ELEMENT_THEORY = SGP/SGP4

EPOCH          = 2025-11-18T06:29:47.800032
MEAN_MOTION    = 15.40451555
ECCENTRICITY   = .0011437
INCLINATION    = 82.4338
RA_OF_ASC_NODE = 31.4417
ARG_OF_PERICENTER = 191.3694
MEAN_ANOMALY   = 168.7295

EPHEMERIS_TYPE = 0
CLASSIFICATION_TYPE = U
NORAD_CAT_ID   = 33504
ELEMENT_SET_NO = 999
REV_AT_EPOCH   = 92857
BSTAR          = .35583E-3
MEAN_MOTION_DOT = .14481E-3
MEAN_MOTION_DDOT = 0

CCSDS_OMM_VERS = 2.0
CREATION_DATE  = 
ORIGINATOR     = 

OBJECT_NAME    = CZ-2C R/B
OBJECT_ID      = 2011-030B
CENTER_NAME    = EARTH
REF_FRAME      = TEME
TIME_SYSTEM    = UTC
MEAN_ELEMENT_THEORY = SGP/SGP4

EPOCH          = 2025-11-18T09:55:13.224000
MEAN_MOTION    = 14.80781217
ECCENTRICITY   = .0052925
INCLINATION    = 97.8369
RA_OF_ASC_NODE = 277.0659
ARG_OF_PERICENTER = 354.2887
MEAN_ANOMALY   = 119.4822

EPHEMERIS_TYPE = 0
CLASSIFICATION_TYPE = U
NORAD_CAT_ID   = 37731
ELEMENT_SET_NO = 999
REV_AT_EPOCH   = 77362
BSTAR          = .31951E-3
MEAN_MOTION_DOT = .2467E-4
MEAN_MOTION_DDOT = 0

