ARIANE 5 R/B            
1 28499U 04049H   25322.39512925  .00001221  00000+0  14172-3 0  9992
2 28499  98.2516 121.8065 0084520 352.6399   7.3567 14.84939446129275
CZ-2D R/B               
1 28738U 05024B   25322.48462554  .00031050  00000+0  52271-3 0  9999
2 28738  97.3650 329.3250 0008138  75.0587 285.1566 15.51627763122490
ALOS (DAICHI)           
1 28931U 06002A   25322.38571992  .00002349  00000+0  40552-3 0  9995
2 28931  98.1050 274.0517 0000834  59.1645 300.9643 14.69379914 57133
H-2A R/B                
1 28932U 06002B   25322.33483295  .00012556  00000+0  67209-3 0  9998
2 28932  98.2300  95.1060 0054451 259.7633  99.7454 15.13906039 77574
RESURS-DK 1             
1 29228U 06021A   25321.95645321  .00003011  00000+0  18124-3 0  9993
2 29228  69.9312 165.8761 0007139 280.3633  79.6728 15.11963057 70637
CZ-4B R/B               
1 29507U 06046C   25322.07819635  .00006110  00000+0  32168-3 0  9992
2 29507  97.5773   2.2849 0032823 295.2608  64.5224 15.15530735 43137
CZ-2C R/B               
1 31114U 07010B   25322.34200376  .00000222  00000+0  12124-3 0  9995
2 31114  98.3967  76.2221 0057931 257.6925 101.7763 14.20195385963916
COSMO-SKYMED 1          
1 31598U 07023A   25322.50250436  .00004654  00000+0  42530-3 0  9992
2 31598  97.8841 147.7468 0001082  79.9808 280.1535 14.95516909998272
COSMOS 2428             
1 31792U 07029A   25322.45466414 -.00000170  00000+0 -65657-4 0  9990
2 31792  70.9369  76.8646 0002397  65.2517 294.8854 14.12887982948384
SL-16 R/B               
1 31793U 07029B   25322.49708515  .00000294  00000+0  17715-3 0  9992
2 31793  70.9777  46.1156 0002201 262.3169 184.0848 14.14814215949645
KORONAS-FOTON           
1 33504U 09003A   25322.27069213  .00014481  00000+0  35583-3 0  9995
2 33504  82.4338  31.4417 0011437 191.3694 168.7295 15.40451555928578
CZ-2C R/B               
1 37731U 11030B   25322.41334750  .00002467  00000+0  31951-3 0  9997
2 37731  97.8369 277.0659 0052925 354.2887 119.4822 14.80781217773622
